ONEWEB-0710             
1 55173U 23004AK  23354.56413640  .00000058  00000+0  11595-3 0  9992
2 55173  87.9199 186.7419 0001753  84.1845 275.9486 13.17596797 47791
ONEWEB-0711             
1 55174U 23004AL  23354.64171351  .00000593  00000+0  16362-2 0  9992
2 55174  87.8980 201.8283 0001879  53.5524 306.5777 13.11420622 46633
ONEWEB-0713             
1 55175U 23004AM  23354.65958507  .00000388  00000+0  10584-2 0  9992
2 55175  87.8976 201.8327 0001491  70.1166 290.0122 13.11415449 46615
ONEWEB-0715             
1 55176U 23004AN  23354.65472253  .00000545  00000+0  15019-2 0  9995
2 55176  87.8960 201.8339 0001325  75.6257 284.5018 13.11417631 46661
ONEWEB-0716             
1 55177U 23004AP  23354.55779913  .00000044  00000+0  80856-4 0  9995
2 55177  87.9181 186.7332 0001304  96.9357 263.1923 13.17599025 47793
ONEWEB-0717             
1 55178U 23004AQ  23354.54051941  .00000057  00000+0  11369-3 0  9995
2 55178  87.9200 186.7018 0002260  64.9419 295.1947 13.17701955 47847
ONEWEB-0719             
1 55179U 23004AR  23354.55146952  .00000032  00000+0  49810-4 0  9990
2 55179  87.9199 186.6868 0001230  76.4569 283.6700 13.17596835 47799
ONEWEB-0530             
1 55796U 23029A   23354.25140244  .00000117  00000+0  25465-3 0  9990
2 55796  87.9205  95.6069 0001649  86.3003 273.8319 13.20772992 41033
